[{"OBJECT_NAME":"KUIPER-00009","OBJECT_ID":"2025-088B","EPOCH":"2026-03-09T07:26:50.434944","MEAN_MOTION":14.79940498,"ECCENTRICITY":0.00078887,"INCLINATION":51.9012,"RA_OF_ASC_NODE":108.316,"ARG_OF_PERICENTER":95.6671,"MEAN_ANOMALY":264.5191,"EPHEMERIS_TYPE":0,"CLASSIFICATION_TYPE":"U","NORAD_CAT_ID":63725,"ELEMENT_SET_NO":999,"REV_AT_EPOCH":4772,"BSTAR":0.00068172788,"MEAN_MOTION_DOT":4.981e-5,"MEAN_MOTION_DDOT":0},{"OBJECT_NAME":"CZ-6A DEB","OBJECT_ID":"2022-151GW","EPOCH":"2026-03-09T15:14:22.832736","MEAN_MOTION":14.63576232,"ECCENTRICITY":0.0075825,"INCLINATION":98.6315,"RA_OF_ASC_NODE":122.0354,"ARG_OF_PERICENTER":259.7926,"MEAN_ANOMALY":99.4717,"EPHEMERIS_TYPE":0,"CLASSIFICATION_TYPE":"U","NORAD_CAT_ID":54470,"ELEMENT_SET_NO":999,"REV_AT_EPOCH":17390,"BSTAR":0.0019836,"MEAN_MOTION_DOT":0.00010693,"MEAN_MOTION_DDOT":0}]
